{"type": "FeatureCollection", "features": [ {"type": "Feature", "properties": {"norad_id": 36180, "name": "FENGYUN 1C DEB", "group": "fengyun-1c-debris", "lat": -19.23623489132487, "lon": 50.14250753011906, "alt_km": 749.6721145448582, "timestamp": "2025-12-09T09:46:47.934474+00:00", "meta": {"OBJECT_NAME": "FENGYUN 1C DEB", "OBJECT_ID": "1999-025DTD", "EPOCH": "2025-12-05T21:21:22.276224", "MEAN_MOTION": 14.20680074, "ECCENTRICITY": 0.02106275, "INCLINATION": 98.4572, "RA_OF_ASC_NODE": 43.7979, "ARG_OF_PERICENTER": 50.8055, "MEAN_ANOMALY": 311.1621, "EPHEMERIS_TYPE": 0, "CLASSIFICATION_TYPE": "U", "NORAD_CAT_ID": 36180, "ELEMENT_SET_NO": 999, "REV_AT_EPOCH": 70486, "BSTAR": 0.00091841135, "MEAN_MOTION_DOT": 2.432e-05, "MEAN_MOTION_DDOT": 0}, "tle": {"line1": "1 36180U 99025DTD 25339.88984116  .00002432  00000+0  91841-3 0  9996", "line2": "2 36180  98.4572  43.7979 0210627  50.8055 311.1621 14.20680074704867"}}, "geometry": {"type": "Point", "coordinates": [50.14250753011906, -19.23623489132487]}}, {"type": "Feature", "properties": {"norad_id": 36182, "name": "FENGYUN 1C DEB", "group": "fengyun-1c-debris", "lat": 51.70974845839545, "lon": -100.90952434827113, "alt_km": 758.2467557839491, "timestamp": "2025-12-09T09:46:47.934484+00:00", "meta": {"OBJECT_NAME": "FENGYUN 1C DEB", "OBJECT_ID": "1999-025DTF", "EPOCH": "2025-12-08T01:44:01.285440", "MEAN_MOTION": 14.34660736, "ECCENTRICITY": 0.00215418, "INCLINATION": 99.0885, "RA_OF_ASC_NODE": 269.3848, "ARG_OF_PERICENTER": 88.7861, "MEAN_ANOMALY": 271.579, "EPHEMERIS_TYPE": 0, "CLASSIFICATION_TYPE": "U", "NORAD_CAT_ID": 36182, "ELEMENT_SET_NO": 999, "REV_AT_EPOCH": 87890, "BSTAR": 0.0020222456, "MEAN_MOTION_DOT": 5.691e-05, "MEAN_MOTION_DDOT": 0}, "tle": {"line1": "1 36182U 99025DTF 25342.07223710  .00005691  00000+0  20222-2 0  9993", "line2": "2 36182  99.0885 269.3848 0021541  88.7861 271.5790 14.34660736878905"}}, "geometry": {"type": "Point", "coordinates": [-100.90952434827113, 51.70974845839545]}}, {"type": "Feature", "properties": {"norad_id": 36186, "name": "FENGYUN 1C DEB", "group": "fengyun-1c-debris", "lat": 77.7974177110913, "lon": 159.09575138433553, "alt_km": 529.492290953368, "timestamp": "2025-12-09T09:46:47.934495+00:00", "meta": {"OBJECT_NAME": "FENGYUN 1C DEB", "OBJECT_ID": "1999-025DTK", "EPOCH": "2025-12-06T21:01:26.135616", "MEAN_MOTION": 15.09149878, "ECCENTRICITY": 0.00147295, "INCLINATION": 98.9889, "RA_OF_ASC_NODE": 203.1836, "ARG_OF_PERICENTER": 349.9169, "MEAN_ANOMALY": 20.7197, "EPHEMERIS_TYPE": 0, "CLASSIFICATION_TYPE": "U", "NORAD_CAT_ID": 36186, "ELEMENT_SET_NO": 999, "REV_AT_EPOCH": 61482, "BSTAR": 0.015546812, "MEAN_MOTION_DOT": 0.00256087, "MEAN_MOTION_DDOT": 0}, "tle": {"line1": "1 36186U 99025DTK 25340.87599694  .00256087  00000+0  15547-1 0  9990", "line2": "2 36186  98.9889 203.1836 0014729 349.9169  20.7197 15.09149878614823"}}, "geometry": {"type": "Point", "coordinates": [159.09575138433553, 77.7974177110913]}}, {"type": "Feature", "properties": {"norad_id": 36188, "name": "FENGYUN 1C DEB", "group": "fengyun-1c-debris", "lat": 12.399219268267204, "lon": -94.38653475423398, "alt_km": 720.9171648167166, "timestamp": "2025-12-09T09:46:47.934505+00:00", "meta": {"OBJECT_NAME": "FENGYUN 1C DEB", "OBJECT_ID": "1999-025DTM", "EPOCH": "2025-12-06T00:26:45.096864", "MEAN_MOTION": 14.6043913, "ECCENTRICITY": 0.0047401, "INCLINATION": 98.5867, "RA_OF_ASC_NODE": 80.1988, "ARG_OF_PERICENTER": 325.7511, "MEAN_ANOMALY": 34.0633, "EPHEMERIS_TYPE": 0, "CLASSIFICATION_TYPE": "U", "NORAD_CAT_ID": 36188, "ELEMENT_SET_NO": 999, "REV_AT_EPOCH": 87954, "BSTAR": 0.0036772102, "MEAN_MOTION_DOT": 0.0001809, "MEAN_MOTION_DDOT": 0}, "tle": {"line1": "1 36188U 99025DTM 25340.01857751  .00018090  00000+0  36772-2 0  9993", "line2": "2 36188  98.5867  80.1988 0047401 325.7511  34.0633 14.60439130879548"}}, "geometry": {"type": "Point", "coordinates": [-94.38653475423398, 12.399219268267204]}}, {"type": "Feature", "properties": {"norad_id": 36198, "name": "FENGYUN 1C DEB", "group": "fengyun-1c-debris", "lat": 17.654241871048637, "lon": -164.32924273027785, "alt_km": 810.8083203716487, "timestamp": "2025-12-09T09:46:47.934516+00:00", "meta": {"OBJECT_NAME": "FENGYUN 1C DEB", "OBJECT_ID": "1999-025DTX", "EPOCH": "2025-12-06T12:47:36.841920", "MEAN_MOTION": 14.07854185, "ECCENTRICITY": 0.00971183, "INCLINATION": 98.6232, "RA_OF_ASC_NODE": 10.1569, "ARG_OF_PERICENTER": 132.8086, "MEAN_ANOMALY": 228.1301, "EPHEMERIS_TYPE": 0, "CLASSIFICATION_TYPE": "U", "NORAD_CAT_ID": 36198, "ELEMENT_SET_NO": 999, "REV_AT_EPOCH": 63500, "BSTAR": 0.002549244, "MEAN_MOTION_DOT": 4.475e-05, "MEAN_MOTION_DDOT": 0}, "tle": {"line1": "1 36198U 99025DTX 25340.53306530  .00004475  00000+0  25492-2 0  9994", "line2": "2 36198  98.6232  10.1569 0097118 132.8086 228.1301 14.07854185635009"}}, "geometry": {"type": "Point", "coordinates": [-164.32924273027785, 17.654241871048637]}}, {"type": "Feature", "properties": {"norad_id": 36199, "name": "FENGYUN 1C DEB", "group": "fengyun-1c-debris", "lat": 66.50474765451918, "lon": -155.69514372175468, "alt_km": 731.437806343215, "timestamp": "2025-12-09T09:46:47.934526+00:00", "meta": {"OBJECT_NAME": "FENGYUN 1C DEB", "OBJECT_ID": "1999-025DTY", "EPOCH": "2025-12-08T08:04:11.858304", "MEAN_MOTION": 14.29640942, "ECCENTRICITY": 0.00930252, "INCLINATION": 98.2902, "RA_OF_ASC_NODE": 3.6881, "ARG_OF_PERICENTER": 80.3866, "MEAN_ANOMALY": 280.7813, "EPHEMERIS_TYPE": 0, "CLASSIFICATION_TYPE": "U", "NORAD_CAT_ID": 36199, "ELEMENT_SET_NO": 999, "REV_AT_EPOCH": 64917, "BSTAR": 0.00047025098, "MEAN_MOTION_DOT": 1.222e-05, "MEAN_MOTION_DDOT": 0}, "tle": {"line1": "1 36199U 99025DTY 25342.33624836  .00001222  00000+0  47025-3 0  9991", "line2": "2 36199  98.2902   3.6881 0093025  80.3866 280.7813 14.29640942649173"}}, "geometry": {"type": "Point", "coordinates": [-155.69514372175468, 66.50474765451918]}}, {"type": "Feature", "properties": {"norad_id": 36200, "name": "FENGYUN 1C DEB", "group": "fengyun-1c-debris", "lat": -80.58787329229891, "lon": 143.30687320370097, "alt_km": 712.7627159409049, "timestamp": "2025-12-09T09:46:47.934537+00:00", "meta": {"OBJECT_NAME": "FENGYUN 1C DEB", "OBJECT_ID": "1999-025DTZ", "EPOCH": "2025-12-07T03:51:08.362944", "MEAN_MOTION": 14.58359228, "ECCENTRICITY": 0.00334809, "INCLINATION": 99.3875, "RA_OF_ASC_NODE": 54.4014, "ARG_OF_PERICENTER": 25.778, "MEAN_ANOMALY": 334.5075, "EPHEMERIS_TYPE": 0, "CLASSIFICATION_TYPE": "U", "NORAD_CAT_ID": 36200, "ELEMENT_SET_NO": 999, "REV_AT_EPOCH": 73279, "BSTAR": 0.0062871133, "MEAN_MOTION_DOT": 0.00029404, "MEAN_MOTION_DDOT": 0}, "tle": {"line1": "1 36200U 99025DTZ 25341.16051346  .00029404  00000+0  62871-2 0  9991", "line2": "2 36200  99.3875  54.4014 0033480  25.7780 334.5075 14.58359228732791"}}, "geometry": {"type": "Point", "coordinates": [143.30687320370097, -80.58787329229891]}}, {"type": "Feature", "properties": {"norad_id": 36203, "name": "FENGYUN 1C DEB", "group": "fengyun-1c-debris", "lat": 4.217459793702961, "lon": -73.92337206928475, "alt_km": 689.6362472548781, "timestamp": "2025-12-09T09:46:47.934548+00:00", "meta": {"OBJECT_NAME": "FENGYUN 1C DEB", "OBJECT_ID": "1999-025DUC", "EPOCH": "2025-12-08T14:16:01.371648", "MEAN_MOTION": 14.78297245, "ECCENTRICITY": 0.0083233, "INCLINATION": 99.0964, "RA_OF_ASC_NODE": 285.836, "ARG_OF_PERICENTER": 161.4127, "MEAN_ANOMALY": 199.0151, "EPHEMERIS_TYPE": 0, "CLASSIFICATION_TYPE": "U", "NORAD_CAT_ID": 36203, "ELEMENT_SET_NO": 999, "REV_AT_EPOCH": 63368, "BSTAR": 0.0016876, "MEAN_MOTION_DOT": 0.00012947, "MEAN_MOTION_DDOT": 0}, "tle": {"line1": "1 36203U 99025DUC 25342.59446032  .00012947  00000+0  16876-2 0  9990", "line2": "2 36203  99.0964 285.8360 0083233 161.4127 199.0151 14.78297245633687"}}, "geometry": {"type": "Point", "coordinates": [-73.92337206928475, 4.217459793702961]}}, {"type": "Feature", "properties": {"norad_id": 36204, "name": "FENGYUN 1C DEB", "group": "fengyun-1c-debris", "lat": -56.8623785397083, "lon": 94.75783822931858, "alt_km": 792.9093834993982, "timestamp": "2025-12-09T09:46:47.934559+00:00", "meta": {"OBJECT_NAME": "FENGYUN 1C DEB", "OBJECT_ID": "1999-025DUD", "EPOCH": "2025-12-04T12:52:24.876192", "MEAN_MOTION": 14.34488584, "ECCENTRICITY": 0.0020013, "INCLINATION": 99.2915, "RA_OF_ASC_NODE": 75.0011, "ARG_OF_PERICENTER": 185.0266, "MEAN_ANOMALY": 175.0719, "EPHEMERIS_TYPE": 0, "CLASSIFICATION_TYPE": "U", "NORAD_CAT_ID": 36204, "ELEMENT_SET_NO": 999, "REV_AT_EPOCH": 94310, "BSTAR": 0.0030031, "MEAN_MOTION_DOT": 8.445e-05, "MEAN_MOTION_DDOT": 0}, "tle": {"line1": "1 36204U 99025DUD 25338.53639903  .00008445  00000+0  30031-2 0  9998", "line2": "2 36204  99.2915  75.0011 0020013 185.0266 175.0719 14.34488584943106"}}, "geometry": {"type": "Point", "coordinates": [94.75783822931858, -56.8623785397083]}}, {"type": "Feature", "properties": {"norad_id": 36206, "name": "FENGYUN 1C DEB", "group": "fengyun-1c-debris", "lat": 65.52339176887662, "lon": -154.17609109894806, "alt_km": 811.3572667719282, "timestamp": "2025-12-09T09:46:47.934570+00:00", "meta": {"OBJECT_NAME": "FENGYUN 1C DEB", "OBJECT_ID": "1999-025DUF", "EPOCH": "2025-11-26T07:02:56.668416", "MEAN_MOTION": 14.21517518, "ECCENTRICITY": 0.00312218, "INCLINATION": 98.4807, "RA_OF_ASC_NODE": 354.0922, "ARG_OF_PERICENTER": 66.8272, "MEAN_ANOMALY": 293.619, "EPHEMERIS_TYPE": 0, "CLASSIFICATION_TYPE": "U", "NORAD_CAT_ID": 36206, "ELEMENT_SET_NO": 999, "REV_AT_EPOCH": 64187, "BSTAR": 0.00073137291, "MEAN_MOTION_DOT": 1.568e-05, "MEAN_MOTION_DDOT": 0}, "tle": {"line1": "1 36206U 99025DUF 25330.29371144  .00001568  00000+0  73137-3 0  9999", "line2": "2 36206  98.4807 354.0922 0031221  66.8272 293.6190 14.21517518641871"}}, "geometry": {"type": "Point", "coordinates": [-154.17609109894806, 65.52339176887662]}}]}